NORAD_CAT_ID,OBJECT_NAME,OBJECT_TYPE,EPOCH,MEAN_MOTION,ECCENTRICITY,INCLINATION,RA_OF_ASC_NODE,ARG_OF_PERICENTER,MEAN_ANOMALY,BSTAR,MEAN_MOTION_DOT,MEAN_MOTION_DDOT,TLE_LINE0,TLE_LINE1,TLE_LINE2,SEMIMAJOR_AXIS,PERIOD,APOGEE,PERIGEE,DECAYED
51773.0,STARLINK-3624,PAYLOAD,2022-05-15 22:00:00,15.25426487,0.000164,53.2174,116.6882,39.9702,344.9372,-0.030212,-0.00721725,0.0,0 STARLINK-3624,1 51773U 22017F   22135.91667824 -.00721725  00000-0 -30212-1 0  9996,2 51773  53.2174 116.6882 0001640  39.9702 344.9372 15.25426487  1300,6867.642,94.4,490.633,488.381,0.0
51773.0,STARLINK-3624,PAYLOAD,2022-05-16 06:00:02,15.24919945,0.0001785,53.2174,115.1537,37.2443,18.9417,-0.030961,-0.00727971,0.0,0 STARLINK-3624,1 51773U 22017F   22136.25002315 -.00727971  00000-0 -30961-1 0  9992,2 51773  53.2174 115.1537 0001785  37.2443  18.9417 15.24919945 13692,6869.163000000001,94.431,492.254,489.802,0.0
51773.0,STARLINK-3624,PAYLOAD,2022-05-16 14:00:01,15.2440804,0.0001573,53.2172,113.6178,45.3058,41.4224,-0.031279,-0.00724432,0.0,0 STARLINK-3624,1 51773U 22017F   22136.58334491 -.00724432  00000-0 -31279-1 0  9993,2 51773  53.2172 113.6178 0001573  45.3058  41.4224 15.24408040  1302,6870.701,94.463,493.646,491.485,0.0
51773.0,STARLINK-3624,PAYLOAD,2022-05-16 22:00:00,15.23897954,0.0001696999999999,53.2175,112.0829,43.7928,72.9276,-0.031721,-0.0072358999999999,0.0,0 STARLINK-3624,1 51773U 22017F   22136.91667824 -.00723590  00000-0 -31721-1 0  9995,2 51773  53.2175 112.0829 0001697  43.7928  72.9276 15.23897954  1307,6872.234,94.495,495.265,492.932,0.0
51773.0,STARLINK-3624,PAYLOAD,2022-05-17 12:00:00,15.2300657,0.0001575999999999,53.217,109.403,47.8003,29.9298,-0.03265,-0.0072509,0.0,0 STARLINK-3624,1 51773U 22017F   22137.50001157 -.00725090  00000-0 -32650-1 0  9991,2 51773  53.2170 109.4030 0001576  47.8003  29.9298 15.23006570 13889,6874.915,94.55,497.86300000000006,495.696,0.0
51773.0,STARLINK-3624,PAYLOAD,2022-05-17 14:00:01,15.2287844,0.0001617,53.2172,109.0195,51.5108,123.4178,-0.03276,-0.00724789,0.0,0 STARLINK-3624,1 51773U 22017F   22137.58335648 -.00724789  00000-0 -32760-1 0  9990,2 51773  53.2172 109.0195 0001617  51.5108 123.4178 15.22878440  1306,6875.3,94.558,498.277,496.054,0.0
51773.0,STARLINK-3624,PAYLOAD,2022-05-17 22:00:01,15.223684,0.0001716,53.2175,107.4885,48.5634,154.5186,-0.033207,-0.00723713,0.0,0 STARLINK-3624,1 51773U 22017F   22137.91668981 -.00723713  00000-0 -33207-1 0  9999,2 51773  53.2175 107.4885 0001716  48.5634 154.5186 15.22368400  1301,6876.8359999999975,94.589,499.881,497.521,0.0
51773.0,STARLINK-3624,PAYLOAD,2022-05-18 12:00:00,15.21475176,0.0001595999999999,53.2171,104.8145,52.7494,108.063,-0.034063,-0.0072302999999999,0.0,0 STARLINK-3624,1 51773U 22017F   22138.50001157 -.00723030  00000-0 -34063-1 0  9994,2 51773  53.2171 104.8145 0001596  52.7494 108.0630 15.21475176 14034,6879.526999999999,94.645,502.49,500.294,0.0
51773.0,STARLINK-3624,PAYLOAD,2022-05-18 14:00:01,15.21349566,0.0001503,53.2173,104.4321,59.0741,198.4125,-0.034377,-0.00726718,0.0,0 STARLINK-3624,1 51773U 22017F   22138.58334491 -.00726718  00000-0 -34377-1 0  9996,2 51773  53.2173 104.4321 0001503  59.0741 198.4125 15.21349566  1302,6879.906,94.653,502.805,500.737,0.0
51773.0,STARLINK-3624,PAYLOAD,2022-05-18 22:00:00,15.20837804,0.0001588,53.2175,102.9046,51.413,232.3893,-0.034673,-0.00722331,0.0,0 STARLINK-3624,1 51773U 22017F   22138.91667824 -.00722331  00000-0 -34673-1 0  9998,2 51773  53.2175 102.9046 0001588  51.4130 232.3893 15.20837804  1308,6881.449000000001,94.685,504.407,502.221,0.0
51773.0,STARLINK-3624,PAYLOAD,2022-05-19 14:00:01,15.19819527,0.0001373,53.2174,99.8553,57.6335,277.0232,-0.035958,-0.00726717,0.0,0 STARLINK-3624,1 51773U 22017F   22139.58335648 -.00726717  00000-0 -35958-1 0  9997,2 51773  53.2174  99.8553 0001373  57.6335 277.0232 15.19819527  1304,6884.523,94.748,507.333,505.442,0.0
51773.0,STARLINK-3624,PAYLOAD,2022-05-19 22:00:00,15.19307581,0.0001543,53.2177,98.3318,47.4185,311.6522,-0.036248,-0.00722061,0.0,0 STARLINK-3624,1 51773U 22017F   22139.91667824 -.00722061  00000-0 -36248-1 0  9999,2 51773  53.2177  98.3318 0001543  47.4185 311.6522 15.19307581 14256,6886.069,94.78,508.997,506.871,0.0
51773.0,STARLINK-3624,PAYLOAD,2022-05-20 14:00:01,15.18288549,0.0001411,53.2175,95.2894,52.5585,353.6269,-0.037489,-0.0072477,0.0,0 STARLINK-3624,1 51773U 22017F   22140.58334491 -.00724770  00000-0 -37489-1 0  9992,2 51773  53.2175  95.2894 0001411  52.5585 353.6269 15.18288549  1301,6889.15,94.844,511.987,510.043,0.0
51773.0,STARLINK-3624,PAYLOAD,2022-05-20 22:00:00,15.17777475,0.0001548,53.2176,93.7696,47.7066,21.1175,-0.0379,-0.00722159,0.0,0 STARLINK-3624,1 51773U 22017F   22140.91667824 -.00722159  00000-0 -37900-1 0  9995,2 51773  53.2176  93.7696 0001548  47.7066  21.1175 15.17777475 14404,6890.696,94.876,513.628,511.495,0.0
51773.0,STARLINK-3624,PAYLOAD,2022-05-21 06:00:00,15.17267889,0.0001639,53.2176,92.2529,46.1558,44.6928,-0.038546,-0.00723647,0.0,0 STARLINK-3624,1 51773U 22017F   22141.25001157 -.00723647  00000-0 -38546-1 0  9994,2 51773  53.2176  92.2529 0001639  46.1558  44.6928 15.17267889  1307,6892.239000000001,94.907,515.234,512.974,0.0
51773.0,STARLINK-3624,PAYLOAD,2022-05-21 14:00:01,15.16757969,0.0001447,53.2175,90.7342,57.4248,54.9005,-0.039097,-0.007233,0.0,0 STARLINK-3624,1 51773U 22017F   22141.58335648 -.00723300  00000-0 -39097-1 0  9993,2 51773  53.2175  90.7342 0001447  57.4248  54.9005 15.16757969  1302,6893.784000000002,94.939,516.646,514.651,0.0
51773.0,STARLINK-3624,PAYLOAD,2022-05-21 20:00:01,15.16374664,0.0001534,53.2174,89.5966,50.1038,347.8159,-0.039408,-0.00721234,0.0,0 STARLINK-3624,1 51773U 22017F   22141.83334491 -.00721234  00000-0 -39408-1 0  9996,2 51773  53.2174  89.5966 0001534  50.1038 347.8159 15.16374664 14544,6894.945,94.963,517.868,515.753,0.0
51773.0,STARLINK-3624,PAYLOAD,2022-05-21 22:00:00,15.16247466,0.0001645,53.2177,89.21799999999998,50.1714,82.8909,-0.039606,-0.00722165,0.0,0 STARLINK-3624,1 51773U 22017F   22141.91667824 -.00722165  00000-0 -39606-1 0  9998,2 51773  53.2177  89.2180 0001645  50.1714  82.8909 15.16247466  1304,6895.331,94.971,518.33,516.062,0.0
51773.0,STARLINK-3624,PAYLOAD,2022-05-22 14:00:01,15.15227844,0.0001525,53.2175,86.1896,59.1171,113.7064,-0.040801,-0.00722548,0.0,0 STARLINK-3624,1 51773U 22017F   22142.58334491 -.00722548  00000-0 -40801-1 0  9997,2 51773  53.2175  86.1896 0001525  59.1171 113.7064 15.15227844  1308,6898.424,95.035,521.341,519.237,0.0
51773.0,STARLINK-3624,PAYLOAD,2022-05-22 22:00:01,15.14717385,0.0001594,53.2177,84.6772,57.7388,134.1095,-0.041355,-0.00721856,0.0,0 STARLINK-3624,1 51773U 22017F   22142.91668981 -.00721856  00000-0 -41355-1 0  9994,2 51773  53.2177  84.6772 0001594  57.7388 134.1095 15.14717385 14719,6899.974,95.067,522.939,520.739,0.0
51773.0,STARLINK-3624,PAYLOAD,2022-05-23 14:00:01,15.13697775,0.0001531999999999,53.2175,81.6557,60.5457,167.3241,-0.042583,-0.00722098,0.0,0 STARLINK-3624,1 51773U 22017F   22143.58334491 -.00722098  00000-0 -42583-1 0  9997,2 51773  53.2175  81.6557 0001532  60.5457 167.3241 15.13697775  1307,6903.071999999999,95.131,525.994,523.879,0.0
51773.0,STARLINK-3624,PAYLOAD,2022-05-23 22:00:01,15.13187414,0.00016,53.2176,80.1471,56.8156,188.2405,-0.04317,-0.00721628,0.0,0 STARLINK-3624,1 51773U 22017F   22143.91668981 -.00721628  00000-0 -43170-1 0  9999,2 51773  53.2176  80.1471 0001600  56.8156 188.2405 15.13187414 14860,6904.624,95.163,527.594,525.384,0.0
51773.0,STARLINK-3624,PAYLOAD,2022-05-24 12:47:23,15.13612583,0.0002139,53.21100000000001,77.3795,49.2853,310.8327,-0.01231,-0.00217334,0.0,0 STARLINK-3624,1 51773U 22017F   22144.53290518 -.00217334  00000-0 -12310-1 0  9991,2 51773  53.2110  77.3795 0002139  49.2853 310.8327 15.13612583 14959,6903.331,95.137,526.672,523.719,0.0
51773.0,STARLINK-3624,PAYLOAD,2022-05-24 22:00:00,15.11657697,0.0001526,53.2174,75.6275,57.3745,235.3112,-0.045078,-0.00721838,0.0,0 STARLINK-3624,1 51773U 22017F   22144.91667824 -.00721838  00000-0 -45078-1 0  9997,2 51773  53.2174  75.6275 0001526  57.3745 235.3112 15.11657697 15016,6909.281,95.26,532.201,530.092,0.0
51773.0,STARLINK-3624,PAYLOAD,2022-05-25 14:00:01,15.10636873,0.0001482,53.2174,72.6199,53.1561,268.2615,-0.046286,-0.00720488,0.0,0 STARLINK-3624,1 51773U 22017F   22145.58334491 -.00720488  00000-0 -46286-1 0  9994,2 51773  53.2174  72.6199 0001482  53.1561 268.2615 15.10636873  1301,6912.394,95.324,535.283,533.234,0.0
51773.0,STARLINK-3624,PAYLOAD,2022-05-25 22:00:00,15.10127991,0.0001465,53.2174,71.1185,56.9848,277.8785,-0.047064,-0.00722198,0.0,0 STARLINK-3624,1 51773U 22017F   22145.91667824 -.00722198  00000-0 -47064-1 0  9995,2 51773  53.2174  71.1185 0001465  56.9848 277.8785 15.10127991  1300,6913.946,95.356,536.8240000000002,534.798,0.0
51773.0,STARLINK-3624,PAYLOAD,2022-05-26 04:28:40,15.10973384,0.0001533,53.2107,69.9287,61.5673,298.5474,-0.012045,-0.00198071,0.0,0 STARLINK-3624,1 51773U 22017F   22146.18657927 -.00198071  00000-0 -12045-1 0  9996,2 51773  53.2107  69.9287 0001533  61.5673 298.5474 15.10973384 15202,6911.3669999999975,95.303,534.2919999999998,532.173,0.0
51773.0,STARLINK-3624,PAYLOAD,2022-05-26 06:00:00,15.09616769,0.0001357,53.2173,69.6196,61.0109,286.6856,-0.047627,-0.00720669,0.0,0 STARLINK-3624,1 51773U 22017F   22146.25001157 -.00720669  00000-0 -47627-1 0  9990,2 51773  53.2173  69.6196 0001357  61.0109 286.6856 15.09616769 15216,6915.507,95.388,538.311,536.434,0.0
51773.0,STARLINK-3624,PAYLOAD,2022-05-26 10:49:56,15.10746483,0.0001076,53.21100000000001,68.7338,86.6241,273.4875,-0.012842,-0.00209495,0.0,0 STARLINK-3624,1 51773U 22017F   22146.45134573 -.00209495  00000-0 -12842-1 0  9991,2 51773  53.2110  68.7338 0001076  86.6241 273.4875 15.10746483 15240,6912.059,95.317,534.668,533.18,0.0
